ALOS (DAICHI)           
1 28931U 06002A   26042.29251421  .00001658  00000+0  28659-3 0  9993
2 28931  98.1172 358.3903 0001940  63.4836 296.6568 14.69721903 69603
H-2A R/B                
1 28932U 06002B   26041.94563266  .00008721  00000+0  44389-3 0  9994
2 28932  98.2361 186.6910 0052668 333.3177  26.5345 15.15873871 90381
RESURS-DK 1             
1 29228U 06021A   26042.15051166  .00002900  00000+0  17184-3 0  9995
2 29228  69.9344 305.6658 0004386 202.0302 158.0676 15.12590114 83512
CZ-4B R/B               
1 29507U 06046C   26042.02248033  .00004825  00000+0  24697-3 0  9994
2 29507  97.5651  87.0011 0033445   2.8684 357.2734 15.16613473 56001
CZ-2C R/B               
1 31114U 07010B   26042.23659701  .00000127  00000+0  77099-4 0  9990
2 31114  98.3970 156.8436 0059148  12.2779 347.9824 14.20236981975965
COSMO-SKYMED 1          
1 31598U 07023A   26042.25189071  .00003702  00000+0  33258-3 0  9990
2 31598  97.8860 233.0765 0000875  87.6842 272.4479 14.96321244 10953
COSMOS 2428             
1 31792U 07029A   26042.05729341  .00000309  00000+0  19128-3 0  9990
2 31792  70.9396 259.2487 0007467 306.4279  53.6153 14.12934495960336
SL-16 R/B               
1 31793U 07029B   26041.91815415  .00000347  00000+0  20435-3 0  9998
2 31793  70.9738 228.6585 0002031 279.3733 185.6151 14.14833800961583
KORONAS-FOTON           
1 33504U 09003A   26042.17478384  .00014124  00000+0  32326-3 0  9993
2 33504  82.4316 303.4269 0008965 250.5043 109.5236 15.42618111941656
CZ-2C R/B               
1 37731U 11030B   26041.85863510  .00001689  00000+0  21884-3 0  9994
2 37731  97.8497 359.6708 0054209  77.9553 336.5424 14.81116732786126
H-2A R/B                
1 38341U 12025E   26041.89040757  .00003960  00000+0  36166-3 0  9994
2 38341  98.4675   6.8074 0045624  41.7234 318.7450 14.94926985744210
SHIJIAN-16 (SJ-16)      
1 39358U 13057A   26042.28165784  .00001340  00000+0  13386-3 0  9990
2 39358  74.9706 235.0776 0016711 178.6274 181.4964 14.92245212667569
