CCSDS_OMM_VERS = 2.0
CREATION_DATE  = 
ORIGINATOR     = 

OBJECT_NAME    = ALOS (DAICHI)
OBJECT_ID      = 2006-002A
CENTER_NAME    = EARTH
REF_FRAME      = TEME
TIME_SYSTEM    = UTC
MEAN_ELEMENT_THEORY = SGP/SGP4

EPOCH          = 2026-02-11T07:01:13.227744
MEAN_MOTION    = 14.69721903
ECCENTRICITY   = .000194
INCLINATION    = 98.1172
RA_OF_ASC_NODE = 358.3903
ARG_OF_PERICENTER = 63.4836
MEAN_ANOMALY   = 296.6568

EPHEMERIS_TYPE = 0
CLASSIFICATION_TYPE = U
NORAD_CAT_ID   = 28931
ELEMENT_SET_NO = 999
REV_AT_EPOCH   = 6960
BSTAR          = .28658855E-3
MEAN_MOTION_DOT = .1658E-4
MEAN_MOTION_DDOT = 0

CCSDS_OMM_VERS = 2.0
CREATION_DATE  = 
ORIGINATOR     = 

OBJECT_NAME    = H-2A R/B
OBJECT_ID      = 2006-002B
CENTER_NAME    = EARTH
REF_FRAME      = TEME
TIME_SYSTEM    = UTC
MEAN_ELEMENT_THEORY = SGP/SGP4

EPOCH          = 2026-02-10T22:41:42.661824
MEAN_MOTION    = 15.15873871
ECCENTRICITY   = .00526682
INCLINATION    = 98.2361
RA_OF_ASC_NODE = 186.6910
ARG_OF_PERICENTER = 333.3177
MEAN_ANOMALY   = 26.5345

EPHEMERIS_TYPE = 0
CLASSIFICATION_TYPE = U
NORAD_CAT_ID   = 28932
ELEMENT_SET_NO = 999
REV_AT_EPOCH   = 9038
BSTAR          = .44388639E-3
MEAN_MOTION_DOT = .8721E-4
MEAN_MOTION_DDOT = 0

CCSDS_OMM_VERS = 2.0
CREATION_DATE  = 
ORIGINATOR     = 

OBJECT_NAME    = RESURS-DK 1
OBJECT_ID      = 2006-021A
CENTER_NAME    = EARTH
REF_FRAME      = TEME
TIME_SYSTEM    = UTC
MEAN_ELEMENT_THEORY = SGP/SGP4

EPOCH          = 2026-02-11T03:36:44.207424
MEAN_MOTION    = 15.12590114
ECCENTRICITY   = .00043868
INCLINATION    = 69.9344
RA_OF_ASC_NODE = 305.6658
ARG_OF_PERICENTER = 202.0302
MEAN_ANOMALY   = 158.0676

EPHEMERIS_TYPE = 0
CLASSIFICATION_TYPE = U
NORAD_CAT_ID   = 29228
ELEMENT_SET_NO = 999
REV_AT_EPOCH   = 8351
BSTAR          = .17184086E-3
MEAN_MOTION_DOT = .29E-4
MEAN_MOTION_DDOT = 0

CCSDS_OMM_VERS = 2.0
CREATION_DATE  = 
ORIGINATOR     = 

OBJECT_NAME    = CZ-4B R/B
OBJECT_ID      = 2006-046C
CENTER_NAME    = EARTH
REF_FRAME      = TEME
TIME_SYSTEM    = UTC
MEAN_ELEMENT_THEORY = SGP/SGP4

EPOCH          = 2026-02-11T00:32:22.300512
MEAN_MOTION    = 15.16613473
ECCENTRICITY   = .00334453
INCLINATION    = 97.5651
RA_OF_ASC_NODE = 87.0011
ARG_OF_PERICENTER = 2.8684
MEAN_ANOMALY   = 357.2734

EPHEMERIS_TYPE = 0
CLASSIFICATION_TYPE = U
NORAD_CAT_ID   = 29507
ELEMENT_SET_NO = 999
REV_AT_EPOCH   = 5600
BSTAR          = .24696565E-3
MEAN_MOTION_DOT = .4825E-4
MEAN_MOTION_DDOT = 0

CCSDS_OMM_VERS = 2.0
CREATION_DATE  = 
ORIGINATOR     = 

OBJECT_NAME    = CZ-2C R/B
OBJECT_ID      = 2007-010B
CENTER_NAME    = EARTH
REF_FRAME      = TEME
TIME_SYSTEM    = UTC
MEAN_ELEMENT_THEORY = SGP/SGP4

EPOCH          = 2026-02-11T05:40:41.981664
MEAN_MOTION    = 14.20236981
ECCENTRICITY   = .00591485
INCLINATION    = 98.3970
RA_OF_ASC_NODE = 156.8436
ARG_OF_PERICENTER = 12.2779
MEAN_ANOMALY   = 347.9824

EPHEMERIS_TYPE = 0
CLASSIFICATION_TYPE = U
NORAD_CAT_ID   = 31114
ELEMENT_SET_NO = 999
REV_AT_EPOCH   = 97596
BSTAR          = .77098972E-4
MEAN_MOTION_DOT = .127E-5
MEAN_MOTION_DDOT = 0

CCSDS_OMM_VERS = 2.0
CREATION_DATE  = 
ORIGINATOR     = 

OBJECT_NAME    = COSMO-SKYMED 1
OBJECT_ID      = 2007-023A
CENTER_NAME    = EARTH
REF_FRAME      = TEME
TIME_SYSTEM    = UTC
MEAN_ELEMENT_THEORY = SGP/SGP4

EPOCH          = 2026-02-11T06:02:43.357344
MEAN_MOTION    = 14.96321244
ECCENTRICITY   = .00008752
INCLINATION    = 97.8860
RA_OF_ASC_NODE = 233.0765
ARG_OF_PERICENTER = 87.6842
MEAN_ANOMALY   = 272.4479

EPHEMERIS_TYPE = 0
CLASSIFICATION_TYPE = U
NORAD_CAT_ID   = 31598
ELEMENT_SET_NO = 999
REV_AT_EPOCH   = 1095
BSTAR          = .33257728E-3
MEAN_MOTION_DOT = .3702E-4
MEAN_MOTION_DDOT = 0

CCSDS_OMM_VERS = 2.0
CREATION_DATE  = 
ORIGINATOR     = 

OBJECT_NAME    = COSMOS 2428
OBJECT_ID      = 2007-029A
CENTER_NAME    = EARTH
REF_FRAME      = TEME
TIME_SYSTEM    = UTC
MEAN_ELEMENT_THEORY = SGP/SGP4

EPOCH          = 2026-02-11T01:22:30.150624
MEAN_MOTION    = 14.12934495
ECCENTRICITY   = .00074675
INCLINATION    = 70.9396
RA_OF_ASC_NODE = 259.2487
ARG_OF_PERICENTER = 306.4279
MEAN_ANOMALY   = 53.6153

EPHEMERIS_TYPE = 0
CLASSIFICATION_TYPE = U
NORAD_CAT_ID   = 31792
ELEMENT_SET_NO = 999
REV_AT_EPOCH   = 96033
BSTAR          = .19128058E-3
MEAN_MOTION_DOT = .309E-5
MEAN_MOTION_DDOT = 0

CCSDS_OMM_VERS = 2.0
CREATION_DATE  = 
ORIGINATOR     = 

OBJECT_NAME    = SL-16 R/B
OBJECT_ID      = 2007-029B
CENTER_NAME    = EARTH
REF_FRAME      = TEME
TIME_SYSTEM    = UTC
MEAN_ELEMENT_THEORY = SGP/SGP4

EPOCH          = 2026-02-10T22:02:08.518560
MEAN_MOTION    = 14.14833800
ECCENTRICITY   = .00020313
INCLINATION    = 70.9738
RA_OF_ASC_NODE = 228.6585
ARG_OF_PERICENTER = 279.3733
MEAN_ANOMALY   = 185.6151

EPHEMERIS_TYPE = 0
CLASSIFICATION_TYPE = U
NORAD_CAT_ID   = 31793
ELEMENT_SET_NO = 999
REV_AT_EPOCH   = 96158
BSTAR          = .20435098E-3
MEAN_MOTION_DOT = .347E-5
MEAN_MOTION_DDOT = 0

CCSDS_OMM_VERS = 2.0
CREATION_DATE  = 
ORIGINATOR     = 

OBJECT_NAME    = KORONAS-FOTON
OBJECT_ID      = 2009-003A
CENTER_NAME    = EARTH
REF_FRAME      = TEME
TIME_SYSTEM    = UTC
MEAN_ELEMENT_THEORY = SGP/SGP4

EPOCH          = 2026-02-11T04:11:41.323776
MEAN_MOTION    = 15.42618111
ECCENTRICITY   = .00089658
INCLINATION    = 82.4316
RA_OF_ASC_NODE = 303.4269
ARG_OF_PERICENTER = 250.5043
MEAN_ANOMALY   = 109.5236

EPHEMERIS_TYPE = 0
CLASSIFICATION_TYPE = U
NORAD_CAT_ID   = 33504
ELEMENT_SET_NO = 999
REV_AT_EPOCH   = 94165
BSTAR          = .32326484E-3
MEAN_MOTION_DOT = .14124E-3
MEAN_MOTION_DDOT = 0

CCSDS_OMM_VERS = 2.0
CREATION_DATE  = 
ORIGINATOR     = 

OBJECT_NAME    = CZ-2C R/B
OBJECT_ID      = 2011-030B
CENTER_NAME    = EARTH
REF_FRAME      = TEME
TIME_SYSTEM    = UTC
MEAN_ELEMENT_THEORY = SGP/SGP4

EPOCH          = 2026-02-10T20:36:26.072640
MEAN_MOTION    = 14.81116732
ECCENTRICITY   = .00542094
INCLINATION    = 97.8497
RA_OF_ASC_NODE = 359.6708
ARG_OF_PERICENTER = 77.9553
MEAN_ANOMALY   = 336.5424

EPHEMERIS_TYPE = 0
CLASSIFICATION_TYPE = U
NORAD_CAT_ID   = 37731
ELEMENT_SET_NO = 999
REV_AT_EPOCH   = 78612
BSTAR          = .21883798E-3
MEAN_MOTION_DOT = .1689E-4
MEAN_MOTION_DDOT = 0

CCSDS_OMM_VERS = 2.0
CREATION_DATE  = 
ORIGINATOR     = 

OBJECT_NAME    = H-2A R/B
OBJECT_ID      = 2012-025E
CENTER_NAME    = EARTH
REF_FRAME      = TEME
TIME_SYSTEM    = UTC
MEAN_ELEMENT_THEORY = SGP/SGP4

EPOCH          = 2026-02-10T21:22:11.214048
MEAN_MOTION    = 14.94926985
ECCENTRICITY   = .00456242
INCLINATION    = 98.4675
RA_OF_ASC_NODE = 6.8074
ARG_OF_PERICENTER = 41.7234
MEAN_ANOMALY   = 318.7450

EPHEMERIS_TYPE = 0
CLASSIFICATION_TYPE = U
NORAD_CAT_ID   = 38341
ELEMENT_SET_NO = 999
REV_AT_EPOCH   = 74421
BSTAR          = .36166337E-3
MEAN_MOTION_DOT = .396E-4
MEAN_MOTION_DDOT = 0

CCSDS_OMM_VERS = 2.0
CREATION_DATE  = 
ORIGINATOR     = 

OBJECT_NAME    = SHIJIAN-16 (SJ-16)
OBJECT_ID      = 2013-057A
CENTER_NAME    = EARTH
REF_FRAME      = TEME
TIME_SYSTEM    = UTC
MEAN_ELEMENT_THEORY = SGP/SGP4

EPOCH          = 2026-02-11T06:45:35.237376
MEAN_MOTION    = 14.92245212
ECCENTRICITY   = .0016711
INCLINATION    = 74.9706
RA_OF_ASC_NODE = 235.0776
ARG_OF_PERICENTER = 178.6274
MEAN_ANOMALY   = 181.4964

EPHEMERIS_TYPE = 0
CLASSIFICATION_TYPE = U
NORAD_CAT_ID   = 39358
ELEMENT_SET_NO = 999
REV_AT_EPOCH   = 66756
BSTAR          = .13385894E-3
MEAN_MOTION_DOT = .134E-4
MEAN_MOTION_DDOT = 0

